FENGYUN 1C DEB          
1 30094U 99025QX  17345.95667809  .00002723  00000-0  53566-3 0  9993
2 30094  99.0036 237.8201 0049292 130.6282 229.9219 14.62783309573154
